NORAD_CAT_ID,OBJECT_NAME,OBJECT_TYPE,EPOCH,MEAN_MOTION,ECCENTRICITY,INCLINATION,RA_OF_ASC_NODE,ARG_OF_PERICENTER,MEAN_ANOMALY,BSTAR,MEAN_MOTION_DOT,MEAN_MOTION_DDOT,TLE_LINE0,TLE_LINE1,TLE_LINE2,SEMIMAJOR_AXIS,PERIOD,APOGEE,PERIGEE,DECAYED
47762,STARLINK-2180,PAYLOAD,2022-09-09 06:59:09,15.06396933,0.0001727,53.0553,201.1057,58.1945,301.9212,8.9353e-05,1.049e-05,0.0,0 STARLINK-2180,1 47762U 21017AS  22252.29107899  .00001049  00000-0  89353-4 0  9991,2 47762  53.0553 201.1057 0001727  58.1945 301.9212 15.06396933 85000,6925.358,95.592,548.419,546.0269999999998,0.0
47762,STARLINK-2180,PAYLOAD,2022-09-10 06:52:14,15.06399145,0.0001696999999999,53.0554,196.6377,58.7986,301.3169,0.00011346,1.409e-05,0.0,0 STARLINK-2180,1 47762U 21017AS  22253.28628258  .00001409  00000-0  11346-3 0  9994,2 47762  53.0554 196.6377 0001697  58.7986 301.3169 15.06399145 85150,6925.351,95.592,548.391,546.0409999999998,0.0
47762,STARLINK-2180,PAYLOAD,2022-09-11 03:34:15,15.06400673,0.0001766,53.0554,192.7657,58.7898,301.3264,0.00012093,1.52e-05,0.0,0 STARLINK-2180,1 47762U 21017AS  22254.14879013  .00001520  00000-0  12093-3 0  9991,2 47762  53.0554 192.7657 0001766  58.7898 301.3264 15.06400673 84634,6925.346,95.592,548.435,545.988,0.0
47762,STARLINK-2180,PAYLOAD,2022-09-11 05:09:47,15.06400492,0.0001748,53.0555,192.4678,55.5143,304.6011,0.00014928,1.943e-05,0.0,0 STARLINK-2180,1 47762U 21017AS  22254.21513648  .00001943  00000-0  14928-3 0  9996,2 47762  53.0555 192.4678 0001748  55.5143 304.6011 15.06400492 85291,6925.347,95.592,548.423,546.001,0.0
47762,STARLINK-2180,PAYLOAD,2022-09-11 19:29:39,15.06398666,0.0001688,53.0552,189.7866,61.8993,298.2166,6.7218e-05,7.200000000000001e-06,0.0,0 STARLINK-2180,1 47762U 21017AS  22254.81226007  .00000720  00000-0  67218-4 0  9995,2 47762  53.0552 189.7866 0001688  61.8993 298.2166 15.06398666 85380,6925.353,95.592,548.387,546.049,0.0
47762,STARLINK-2180,PAYLOAD,2022-09-12 05:02:53,15.06401837,0.0001624,53.0558,187.9998,60.3453,299.7698,7.8638e-05,8.900000000000001e-06,0.0,0 STARLINK-2180,1 47762U 21017AS  22255.21033776  .00000890  00000-0  78638-4 0  9995,2 47762  53.0558 187.9998 0001624  60.3453 299.7698 15.06401837 85445,6925.343000000003,95.592,548.3330000000002,546.0830000000002,0.0
47762,STARLINK-2180,PAYLOAD,2022-09-12 19:22:44,15.06396168,0.0001452,53.0549,185.3224,58.5852,301.5279,5.2207e-05,4.96e-06,0.0,0 STARLINK-2180,1 47762U 21017AS  22255.80746300  .00000496  00000-0  52207-4 0  9990,2 47762  53.0549 185.3224 0001452  58.5852 301.5279 15.06396168 84884,6925.36,95.592,548.231,546.22,0.0
47762,STARLINK-2180,PAYLOAD,2022-09-13 04:55:58,15.06401271,0.0001534,53.0549,183.5354,57.2328,302.8809,9.0335e-06,-1.47e-06,0.0,0 STARLINK-2180,1 47762U 21017AS  22256.20554186 -.00000147  00000-0  90335-5 0  9993,2 47762  53.0549 183.5354 0001534  57.2328 302.8809 15.06401271 85597,6925.345,95.592,548.2719999999998,546.1469999999998,0.0
47762,STARLINK-2180,PAYLOAD,2022-09-14 01:38:01,15.06320441,0.0002131999999999,53.0548,179.6633,57.4433,302.6761,0.0011989,0.00017583,0.0,0 STARLINK-2180,1 47762U 21017AS  22257.06807745  .00017583  00000-0  11989-2 0  9996,2 47762  53.0548 179.6633 0002132  57.4433 302.6761 15.06320441 85073,6925.592,95.597,548.934,545.981,0.0
47762,STARLINK-2180,PAYLOAD,2022-09-14 04:49:04,15.06410853,0.0001713,53.0549,179.0673,56.7994,303.3159,-0.00024828,-3.979e-05,0.0,0 STARLINK-2180,1 47762U 21017AS  22257.20074444 -.00003979  00000-0 -24828-3 0  9997,2 47762  53.0549 179.0673 0001713  56.7994 303.3159 15.06410853 85098,6925.315,95.591,548.367,545.994,0.0
47762,STARLINK-2180,PAYLOAD,2022-09-14 19:08:56,15.06389814,0.0001699999999999,53.0552,176.3866,59.0323,301.0833,1.7534000000000002e-05,-2e-07,0.0,0 STARLINK-2180,1 47762U 21017AS  22257.79787708 -.00000020  00000-0  17534-4 0  9995,2 47762  53.0552 176.3866 0001700  59.0323 301.0833 15.06389814 85832,6925.38,95.593,548.422,546.067,0.0
47762,STARLINK-2180,PAYLOAD,2022-09-15 03:06:38,15.06395387,0.000172,53.0552,174.8971,62.4689,297.6474,6.7916e-05,7.299999999999999e-06,0.0,0 STARLINK-2180,1 47762U 21017AS  22258.12960812  .00000730  00000-0  67916-4 0  9998,2 47762  53.0552 174.8971 0001720  62.4689 297.6474 15.06395387 85885,6925.363,95.592,548.419,546.0369999999998,0.0
47762,STARLINK-2180,PAYLOAD,2022-09-15 19:02:01,15.06392195,0.0001727,53.055,171.9184,62.1926,297.9238,0.00013879,1.786e-05,0.0,0 STARLINK-2180,1 47762U 21017AS  22258.79307778  .00001786  00000-0  13879-3 0  9997,2 47762  53.0550 171.9184 0001727  62.1926 297.9238 15.06392195 85981,6925.371999999999,95.593,548.433,546.0409999999998,0.0
47762,STARLINK-2180,PAYLOAD,2022-09-16 02:59:44,15.06386838,0.0001437,53.0541,170.4272,62.0101,298.1033,0.00015426,2.016e-05,0.0,0 STARLINK-2180,1 47762U 21017AS  22259.12481612  .00002016  00000-0  15426-3 0  9992,2 47762  53.0541 170.4272 0001437  62.0101 298.1033 15.06386838 86035,6925.389,95.593,548.249,546.259,0.0
47762,STARLINK-2180,PAYLOAD,2022-09-17 04:28:22,15.06392421,0.0001626,53.0557,165.66299999999995,59.5817,300.5333,6.9465e-06,-1.78e-06,0.0,0 STARLINK-2180,1 47762U 21017AS  22260.18636795 -.00000178  00000-0  69465-5 0  9996,2 47762  53.0557 165.6630 0001626  59.5817 300.5333 15.06392421 86194,6925.371999999999,95.593,548.363,546.111,0.0
47762,STARLINK-2180,PAYLOAD,2022-09-17 21:59:17,15.06398285,0.0001656,53.0554,162.387,58.9508,301.1643,0.0001309,1.669e-05,0.0,0 STARLINK-2180,1 47762U 21017AS  22260.91617708  .00001669  00000-0  13090-3 0  9996,2 47762  53.0554 162.3870 0001656  58.9508 301.1643 15.06398285 86302,6925.354,95.592,548.366,546.072,0.0
47762,STARLINK-2180,PAYLOAD,2022-09-18 02:45:55,15.06395251,0.0001551999999999,53.0556,161.4938,61.4375,298.677,9.3547e-05,1.112e-05,0.0,0 STARLINK-2180,1 47762U 21017AS  22261.11522048  .00001112  00000-0  93547-4 0  9990,2 47762  53.0556 161.4938 0001552  61.4375 298.6770 15.06395251 86339,6925.363,95.592,548.303,546.153,0.0
47762,STARLINK-2180,PAYLOAD,2022-09-19 02:38:59,15.0640407,0.0001696,53.0549,157.0259,65.3578,294.7588,0.00014302,1.85e-05,0.0,0 STARLINK-2180,1 47762U 21017AS  22262.11041567  .00001850  00000-0  14302-3 0  9993,2 47762  53.0549 157.0259 0001696  65.3578 294.7588 15.06404070 86485,6925.3359999999975,95.592,548.376,546.0269999999998,0.0
47762,STARLINK-2180,PAYLOAD,2022-09-20 02:32:06,15.06409693,0.0001896999999999,53.0543,152.5556,74.6951,285.4248,-0.00024367,-3.91e-05,0.0,0 STARLINK-2180,1 47762U 21017AS  22263.10562669 -.00003910  00000-0 -24367-3 0  9997,2 47762  53.0543 152.5556 0001897  74.6951 285.4248 15.06409693 85980,6925.319,95.592,548.498,545.87,0.0
47762,STARLINK-2180,PAYLOAD,2022-09-21 00:49:39,15.06398707,0.0001994,53.0563,148.3884,66.3643,293.7555,-4.346899999999999e-05,-9.29e-06,0.0,0 STARLINK-2180,1 47762U 21017AS  22264.03448699 -.00000929  00000-0 -43469-4 0  9998,2 47762  53.0563 148.3884 0001994  66.3643 293.7555 15.06398707 86126,6925.353,95.592,548.5980000000002,545.837,0.0
47762,STARLINK-2180,PAYLOAD,2022-09-22 08:40:27,15.06398178,0.0001952,53.0551,142.4305,65.8735,294.2458,5.6629e-05,5.62e-06,0.0,0 STARLINK-2180,1 47762U 21017AS  22265.36142393  .00000562  00000-0  56629-4 0  9990,2 47762  53.0551 142.4305 0001952  65.8735 294.2458 15.06398178 86328,6925.354,95.592,548.571,545.867,0.0
47762,STARLINK-2180,PAYLOAD,2022-09-22 19:49:14,15.06392367,0.0001748,53.0545,140.3473,65.6178,294.4993,7.3287e-06,-1.72e-06,0.0,0 STARLINK-2180,1 47762U 21017AS  22265.82585875 -.00000172  00000-0  73287-5 0  9995,2 47762  53.0545 140.3473 0001748  65.6178 294.4993 15.06392367 86393,6925.371999999999,95.593,548.448,546.026,0.0
47762,STARLINK-2180,PAYLOAD,2022-09-22 21:24:46,15.06393497,0.0001758,53.0544,140.0494,66.0583,294.059,1.7033e-05,-2.8e-07,0.0,0 STARLINK-2180,1 47762U 21017AS  22265.89220477 -.00000028  00000-0  17033-4 0  9992,2 47762  53.0544 140.0494 0001758  66.0583 294.0590 15.06393497 87056,6925.368,95.593,548.451,546.016,0.0
47762,STARLINK-2180,PAYLOAD,2022-09-23 08:33:32,15.0640086,0.000171,53.0551,137.9658,69.5363,290.5809,9.2013e-05,1.089e-05,0.0,0 STARLINK-2180,1 47762U 21017AS  22266.35662745  .00001089  00000-0  92013-4 0  9990,2 47762  53.0551 137.9658 0001710  69.5363 290.5809 15.06400860 87128,6925.346,95.592,548.395,546.0269999999998,0.0
47762,STARLINK-2180,PAYLOAD,2022-09-23 19:42:19,15.06391983,0.0001827,53.056,135.8811,72.3827,287.7361,9.0922e-05,1.073e-05,0.0,0 STARLINK-2180,1 47762U 21017AS  22266.82106110  .00001073  00000-0  90922-4 0  9991,2 47762  53.0560 135.8811 0001827  72.3827 287.7361 15.06391983 86543,6925.373000000001,95.593,548.503,545.9730000000002,0.0
47762,STARLINK-2180,PAYLOAD,2022-09-23 21:17:52,15.06390324,0.000177,53.0561,135.5835,72.2566,287.8616,7.309e-05,8.07e-06,0.0,0 STARLINK-2180,1 47762U 21017AS  22266.88740969  .00000807  00000-0  73090-4 0  9994,2 47762  53.0561 135.5835 0001770  72.2566 287.8616 15.06390324 87209,6925.378000000002,95.593,548.469,546.0169999999998,0.0
47762,STARLINK-2180,PAYLOAD,2022-09-24 08:26:38,15.06394934,0.000174,53.0555,133.4978,68.9746,291.1429,0.00010438,1.273e-05,0.0,0 STARLINK-2180,1 47762U 21017AS  22267.35183562  .00001273  00000-0  10438-3 0  9991,2 47762  53.0555 133.4978 0001740  68.9746 291.1429 15.06394934 87274,6925.364000000001,95.592,548.434,546.024,0.0
47762,STARLINK-2180,PAYLOAD,2022-09-24 19:35:24,15.06407005,0.0001658,53.0547,131.4125,68.7519,291.3647,9.3439e-05,1.111e-05,0.0,0 STARLINK-2180,1 47762U 21017AS  22267.81625594  .00001111  00000-0  93439-4 0  9992,2 47762  53.0547 131.4125 0001658  68.7519 291.3647 15.06407005 86694,6925.3269999999975,95.592,548.34,546.044,0.0
47762,STARLINK-2180,PAYLOAD,2022-09-24 21:10:56,15.06407175,0.000167,53.0548,131.1145,68.5474,291.5693,9.4787e-05,1.131e-05,0.0,0 STARLINK-2180,1 47762U 21017AS  22267.88260240  .00001131  00000-0  94787-4 0  9991,2 47762  53.0548 131.1145 0001670  68.5474 291.5693 15.06407175 87351,6925.3269999999975,95.592,548.3480000000002,546.035,0.0
